IRIDIUM 159             
1 43578U 18061K   25353.90114055  .00000199  00000+0  64122-4 0  9993
2 43578  86.3980 131.6752 0001978  90.3360 269.8062 14.34218110387684
IRIDIUM 180             
1 43922U 19002A   25353.13318253  .00000182  00000+0  57818-4 0  9999
2 43922  86.3963  68.8685 0001967  95.0522 265.0898 14.34218384363181
IRIDIUM 176             
1 43923U 19002B   25353.24848116  .00000753  00000+0  11550-3 0  9994
2 43923  86.6085  68.7900 0002340  95.9298 264.2186 14.72256870372774
IRIDIUM 168             
1 43924U 19002C   25353.47567977  .00000231  00000+0  75578-4 0  9995
2 43924  86.3965  68.7976 0002102  98.2315 261.9119 14.34216109363212
IRIDIUM 173             
1 43925U 19002D   25353.46299183  .00000190  00000+0  60655-4 0  9990
2 43925  86.3963  68.6989 0002063 102.4424 257.7002 14.34216836363197
IRIDIUM 169             
1 43926U 19002E   25353.24191475  .00000304  00000+0  92839-4 0  9998
2 43926  86.4225 100.4436 0002361 124.2691 235.8731 14.38609847364358
IRIDIUM 172             
1 43927U 19002F   25353.73572563  .00000242  00000+0  79303-4 0  9996
2 43927  86.3960  68.5923 0001972  94.1127 266.0294 14.34216211363247
IRIDIUM 175             
1 43928U 19002G   25353.51563252  .00000682  00000+0  10424-3 0  9994
2 43928  86.1497  10.7003 0003209  85.6189 274.5394 14.72246986372808
